STARLINK-31987          
1 60017U 24111B   26068.25673428 -.00000531  00000+0 -58246-5 0  9992
2 60017  53.1610  77.8920 0001166  79.9762 280.1371 15.30187806 98928
TEVEL2-9                
1 63237U 25052AD  26068.70229538  .00018694  00000+0  67240-3 0  9992
2 63237  97.4057 324.3929 0007990 124.2475 235.9522 15.28633834 54816
