[{"OBJECT_NAME":"STARLINK-31987","OBJECT_ID":"2024-111B","EPOCH":"2026-03-09T06:09:41.841792","MEAN_MOTION":15.30187806,"ECCENTRICITY":0.00011667,"INCLINATION":53.161,"RA_OF_ASC_NODE":77.892,"ARG_OF_PERICENTER":79.9762,"MEAN_ANOMALY":280.1371,"EPHEMERIS_TYPE":0,"CLASSIFICATION_TYPE":"U","NORAD_CAT_ID":60017,"ELEMENT_SET_NO":999,"REV_AT_EPOCH":9892,"BSTAR":-5.824588e-6,"MEAN_MOTION_DOT":-5.31e-6,"MEAN_MOTION_DDOT":0},{"OBJECT_NAME":"TEVEL2-9","OBJECT_ID":"2025-052AD","EPOCH":"2026-03-09T16:51:18.321696","MEAN_MOTION":15.28633834,"ECCENTRICITY":0.000799,"INCLINATION":97.4057,"RA_OF_ASC_NODE":324.3929,"ARG_OF_PERICENTER":124.2475,"MEAN_ANOMALY":235.9522,"EPHEMERIS_TYPE":0,"CLASSIFICATION_TYPE":"U","NORAD_CAT_ID":63237,"ELEMENT_SET_NO":999,"REV_AT_EPOCH":5481,"BSTAR":0.00067240159,"MEAN_MOTION_DOT":0.00018694,"MEAN_MOTION_DDOT":0}]
